SL-16 R/B               
1 24298U 96051B   25318.65548671  .00000016  00000+0  35416-4 0  9996
2 24298  70.7606  58.7265 0018242 296.6828  63.2424 14.12393306505401
ORBVIEW 2 (SEASTAR)     
1 24883U 97037A   25318.40531156  .00000778  00000+0  28738-3 0  9997
2 24883  98.8447 114.7695 0002953  56.4724 303.6742 14.35386057491930
SL-16 R/B               
1 25400U 98043G   25318.87278809  .00000204  00000+0  10434-3 0  9993
2 25400  98.8077 266.5415 0009734 354.2137   5.8929 14.26015492422622
SL-16 R/B               
1 25407U 98045B   25318.44046318 -.00000125  00000+0 -38872-4 0  9994
2 25407  71.0121  63.9368 0008596 216.5615 143.4922 14.16169098410781
ISS (ZARYA)             
1 25544U 98067A   25318.54719561  .00013278  00000+0  24309-3 0  9998
2 25544  51.6328 282.0308 0004169  69.9599 290.1838 15.49658592538480
CZ-4B R/B               
1 25732U 99025C   25318.61758406  .00000197  00000+0  11619-3 0  9997
2 25732  98.6813   0.5208 0036325 317.0971 194.5334 14.18233397371852
OKEAN-O                 
1 25860U 99039A   25318.39634772  .00001589  00000+0  21652-3 0  9992
2 25860  97.9646  14.3383 0001399  67.4096 292.7263 14.80092206417331
SL-16 R/B               
1 25861U 99039B   25318.14860805  .00001640  00000+0  21564-3 0  9994
2 25861  98.0168  12.2923 0013506 272.7303  87.2363 14.81528102419751
DELTA 2 R/B             
1 25876U 99041E   25318.67068137  .00001720  00000+0  31590-3 0  9998
2 25876  51.7632  40.4833 0504875   9.0593 351.9042 14.11302619346781
HELIOS 1B               
1 25977U 99064A   25318.67981266  .00003049  00000+0  34590-3 0  9991
2 25977  98.1755 212.5165 0002587  80.7674 279.3833 14.87120340668165
TERRA                   
1 25994U 99068A   25318.72949279  .00001093  00000+0  23250-3 0  9996
2 25994  97.9790  11.4352 0002512 156.7644 307.0101 14.60905738378295
SL-16 R/B               
1 26070U 00006B   25318.49666735 -.00000116  00000+0 -34898-4 0  9991
2 26070  71.0031 340.0442 0016986 348.2946  11.7780 14.15802342332251
