CCSDS_OMM_VERS = 2.0
CREATION_DATE  = 
ORIGINATOR     = 

OBJECT_NAME    = SL-16 R/B
OBJECT_ID      = 1996-051B
CENTER_NAME    = EARTH
REF_FRAME      = TEME
TIME_SYSTEM    = UTC
MEAN_ELEMENT_THEORY = SGP/SGP4

EPOCH          = 2025-11-14T15:43:54.051744
MEAN_MOTION    = 14.12393306
ECCENTRICITY   = .0018242
INCLINATION    = 70.7606
RA_OF_ASC_NODE = 58.7265
ARG_OF_PERICENTER = 296.6828
MEAN_ANOMALY   = 63.2424

EPHEMERIS_TYPE = 0
CLASSIFICATION_TYPE = U
NORAD_CAT_ID   = 24298
ELEMENT_SET_NO = 999
REV_AT_EPOCH   = 50540
BSTAR          = .35416E-4
MEAN_MOTION_DOT = .16E-6
MEAN_MOTION_DDOT = 0

CCSDS_OMM_VERS = 2.0
CREATION_DATE  = 
ORIGINATOR     = 

OBJECT_NAME    = ORBVIEW 2 (SEASTAR)
OBJECT_ID      = 1997-037A
CENTER_NAME    = EARTH
REF_FRAME      = TEME
TIME_SYSTEM    = UTC
MEAN_ELEMENT_THEORY = SGP/SGP4

EPOCH          = 2025-11-14T09:43:38.918784
MEAN_MOTION    = 14.35386057
ECCENTRICITY   = .0002953
INCLINATION    = 98.8447
RA_OF_ASC_NODE = 114.7695
ARG_OF_PERICENTER = 56.4724
MEAN_ANOMALY   = 303.6742

EPHEMERIS_TYPE = 0
CLASSIFICATION_TYPE = U
NORAD_CAT_ID   = 24883
ELEMENT_SET_NO = 999
REV_AT_EPOCH   = 49193
BSTAR          = .28738E-3
MEAN_MOTION_DOT = .778E-5
MEAN_MOTION_DDOT = 0

CCSDS_OMM_VERS = 2.0
CREATION_DATE  = 
ORIGINATOR     = 

OBJECT_NAME    = SL-16 R/B
OBJECT_ID      = 1998-043G
CENTER_NAME    = EARTH
REF_FRAME      = TEME
TIME_SYSTEM    = UTC
MEAN_ELEMENT_THEORY = SGP/SGP4

EPOCH          = 2025-11-14T20:56:48.890976
MEAN_MOTION    = 14.26015492
ECCENTRICITY   = .0009734
INCLINATION    = 98.8077
RA_OF_ASC_NODE = 266.5415
ARG_OF_PERICENTER = 354.2137
MEAN_ANOMALY   = 5.8929

EPHEMERIS_TYPE = 0
CLASSIFICATION_TYPE = U
NORAD_CAT_ID   = 25400
ELEMENT_SET_NO = 999
REV_AT_EPOCH   = 42262
BSTAR          = .10434E-3
MEAN_MOTION_DOT = .204E-5
MEAN_MOTION_DDOT = 0

CCSDS_OMM_VERS = 2.0
CREATION_DATE  = 
ORIGINATOR     = 

OBJECT_NAME    = SL-16 R/B
OBJECT_ID      = 1998-045B
CENTER_NAME    = EARTH
REF_FRAME      = TEME
TIME_SYSTEM    = UTC
MEAN_ELEMENT_THEORY = SGP/SGP4

EPOCH          = 2025-11-14T10:34:16.018752
MEAN_MOTION    = 14.16169098
ECCENTRICITY   = .0008596
INCLINATION    = 71.0121
RA_OF_ASC_NODE = 63.9368
ARG_OF_PERICENTER = 216.5615
MEAN_ANOMALY   = 143.4922

EPHEMERIS_TYPE = 0
CLASSIFICATION_TYPE = U
NORAD_CAT_ID   = 25407
ELEMENT_SET_NO = 999
REV_AT_EPOCH   = 41078
BSTAR          = -.38872E-4
MEAN_MOTION_DOT = -.125E-5
MEAN_MOTION_DDOT = 0

CCSDS_OMM_VERS = 2.0
CREATION_DATE  = 
ORIGINATOR     = 

OBJECT_NAME    = ISS (ZARYA)
OBJECT_ID      = 1998-067A
CENTER_NAME    = EARTH
REF_FRAME      = TEME
TIME_SYSTEM    = UTC
MEAN_ELEMENT_THEORY = SGP/SGP4

EPOCH          = 2025-11-14T13:07:57.700704
MEAN_MOTION    = 15.49658592
ECCENTRICITY   = .0004169
INCLINATION    = 51.6328
RA_OF_ASC_NODE = 282.0308
ARG_OF_PERICENTER = 69.9599
MEAN_ANOMALY   = 290.1838

EPHEMERIS_TYPE = 0
CLASSIFICATION_TYPE = U
NORAD_CAT_ID   = 25544
ELEMENT_SET_NO = 999
REV_AT_EPOCH   = 53848
BSTAR          = .24309E-3
MEAN_MOTION_DOT = .13278E-3
MEAN_MOTION_DDOT = 0

CCSDS_OMM_VERS = 2.0
CREATION_DATE  = 
ORIGINATOR     = 

OBJECT_NAME    = CZ-4B R/B
OBJECT_ID      = 1999-025C
CENTER_NAME    = EARTH
REF_FRAME      = TEME
TIME_SYSTEM    = UTC
MEAN_ELEMENT_THEORY = SGP/SGP4

EPOCH          = 2025-11-14T14:49:19.262784
MEAN_MOTION    = 14.18233397
ECCENTRICITY   = .0036325
INCLINATION    = 98.6813
RA_OF_ASC_NODE = 0.5208
ARG_OF_PERICENTER = 317.0971
MEAN_ANOMALY   = 194.5334

EPHEMERIS_TYPE = 0
CLASSIFICATION_TYPE = U
NORAD_CAT_ID   = 25732
ELEMENT_SET_NO = 999
REV_AT_EPOCH   = 37185
BSTAR          = .11619E-3
MEAN_MOTION_DOT = .197E-5
MEAN_MOTION_DDOT = 0

CCSDS_OMM_VERS = 2.0
CREATION_DATE  = 
ORIGINATOR     = 

OBJECT_NAME    = OKEAN-O
OBJECT_ID      = 1999-039A
CENTER_NAME    = EARTH
REF_FRAME      = TEME
TIME_SYSTEM    = UTC
MEAN_ELEMENT_THEORY = SGP/SGP4

EPOCH          = 2025-11-14T09:30:44.443008
MEAN_MOTION    = 14.80092206
ECCENTRICITY   = .0001399
INCLINATION    = 97.9646
RA_OF_ASC_NODE = 14.3383
ARG_OF_PERICENTER = 67.4096
MEAN_ANOMALY   = 292.7263

EPHEMERIS_TYPE = 0
CLASSIFICATION_TYPE = U
NORAD_CAT_ID   = 25860
ELEMENT_SET_NO = 999
REV_AT_EPOCH   = 41733
BSTAR          = .21652E-3
MEAN_MOTION_DOT = .1589E-4
MEAN_MOTION_DDOT = 0

CCSDS_OMM_VERS = 2.0
CREATION_DATE  = 
ORIGINATOR     = 

OBJECT_NAME    = SL-16 R/B
OBJECT_ID      = 1999-039B
CENTER_NAME    = EARTH
REF_FRAME      = TEME
TIME_SYSTEM    = UTC
MEAN_ELEMENT_THEORY = SGP/SGP4

EPOCH          = 2025-11-14T03:33:59.735520
MEAN_MOTION    = 14.81528102
ECCENTRICITY   = .0013506
INCLINATION    = 98.0168
RA_OF_ASC_NODE = 12.2923
ARG_OF_PERICENTER = 272.7303
MEAN_ANOMALY   = 87.2363

EPHEMERIS_TYPE = 0
CLASSIFICATION_TYPE = U
NORAD_CAT_ID   = 25861
ELEMENT_SET_NO = 999
REV_AT_EPOCH   = 41975
BSTAR          = .21563636E-3
MEAN_MOTION_DOT = .164E-4
MEAN_MOTION_DDOT = 0

CCSDS_OMM_VERS = 2.0
CREATION_DATE  = 
ORIGINATOR     = 

OBJECT_NAME    = DELTA 2 R/B
OBJECT_ID      = 1999-041E
CENTER_NAME    = EARTH
REF_FRAME      = TEME
TIME_SYSTEM    = UTC
MEAN_ELEMENT_THEORY = SGP/SGP4

EPOCH          = 2025-11-14T16:05:46.870368
MEAN_MOTION    = 14.11302619
ECCENTRICITY   = .0504875
INCLINATION    = 51.7632
RA_OF_ASC_NODE = 40.4833
ARG_OF_PERICENTER = 9.0593
MEAN_ANOMALY   = 351.9042

EPHEMERIS_TYPE = 0
CLASSIFICATION_TYPE = U
NORAD_CAT_ID   = 25876
ELEMENT_SET_NO = 999
REV_AT_EPOCH   = 34678
BSTAR          = .3159E-3
MEAN_MOTION_DOT = .172E-4
MEAN_MOTION_DDOT = 0

CCSDS_OMM_VERS = 2.0
CREATION_DATE  = 
ORIGINATOR     = 

OBJECT_NAME    = HELIOS 1B
OBJECT_ID      = 1999-064A
CENTER_NAME    = EARTH
REF_FRAME      = TEME
TIME_SYSTEM    = UTC
MEAN_ELEMENT_THEORY = SGP/SGP4

EPOCH          = 2025-11-14T16:18:55.813824
MEAN_MOTION    = 14.87120340
ECCENTRICITY   = .0002587
INCLINATION    = 98.1755
RA_OF_ASC_NODE = 212.5165
ARG_OF_PERICENTER = 80.7674
MEAN_ANOMALY   = 279.3833

EPHEMERIS_TYPE = 0
CLASSIFICATION_TYPE = U
NORAD_CAT_ID   = 25977
ELEMENT_SET_NO = 999
REV_AT_EPOCH   = 66816
BSTAR          = .3459E-3
MEAN_MOTION_DOT = .3049E-4
MEAN_MOTION_DDOT = 0

CCSDS_OMM_VERS = 2.0
CREATION_DATE  = 
ORIGINATOR     = 

OBJECT_NAME    = TERRA
OBJECT_ID      = 1999-068A
CENTER_NAME    = EARTH
REF_FRAME      = TEME
TIME_SYSTEM    = UTC
MEAN_ELEMENT_THEORY = SGP/SGP4

EPOCH          = 2025-11-14T17:30:28.177056
MEAN_MOTION    = 14.60905738
ECCENTRICITY   = .0002512
INCLINATION    = 97.9790
RA_OF_ASC_NODE = 11.4352
ARG_OF_PERICENTER = 156.7644
MEAN_ANOMALY   = 307.0101

EPHEMERIS_TYPE = 0
CLASSIFICATION_TYPE = U
NORAD_CAT_ID   = 25994
ELEMENT_SET_NO = 999
REV_AT_EPOCH   = 37829
BSTAR          = .2325E-3
MEAN_MOTION_DOT = .1093E-4
MEAN_MOTION_DDOT = 0

CCSDS_OMM_VERS = 2.0
CREATION_DATE  = 
ORIGINATOR     = 

OBJECT_NAME    = SL-16 R/B
OBJECT_ID      = 2000-006B
CENTER_NAME    = EARTH
REF_FRAME      = TEME
TIME_SYSTEM    = UTC
MEAN_ELEMENT_THEORY = SGP/SGP4

EPOCH          = 2025-11-14T11:55:12.059040
MEAN_MOTION    = 14.15802342
ECCENTRICITY   = .0016986
INCLINATION    = 71.0031
RA_OF_ASC_NODE = 340.0442
ARG_OF_PERICENTER = 348.2946
MEAN_ANOMALY   = 11.7780

EPHEMERIS_TYPE = 0
CLASSIFICATION_TYPE = U
NORAD_CAT_ID   = 26070
ELEMENT_SET_NO = 999
REV_AT_EPOCH   = 33225
BSTAR          = -.34898E-4
MEAN_MOTION_DOT = -.116E-5
MEAN_MOTION_DDOT = 0

